OBJECT_NAME,OBJECT_ID,EPOCH,MEAN_MOTION,ECCENTRICITY,INCLINATION,RA_OF_ASC_NODE,ARG_OF_PERICENTER,MEAN_ANOMALY,EPHEMERIS_TYPE,CLASSIFICATION_TYPE,NORAD_CAT_ID,ELEMENT_SET_NO,REV_AT_EPOCH,BSTAR,MEAN_MOTION_DOT,MEAN_MOTION_DDOT
LEMUR-2-ALISIA,2025-009DB,2026-06-08T03:30:34.392096,15.02640637,.0000923,97.6965,241.3777,189.4666,170.6542,0,U,62706,999,9880,.52894E-3,.6992E-4,0
LEMUR-2-ROUNDTRIPPER,2025-009DG,2026-06-08T01:03:08.266752,15.03639472,.0004327,97.7242,241.7367,161.4715,198.6669,0,U,62711,999,7625,.75762E-3,.10317E-3,0
LEMUR-2-MYNAMEISJEFF,2025-009DH,2026-06-08T01:00:56.729664,15.03654749,.0002581,97.7290,242.1104,189.1516,170.9662,0,U,62712,999,7625,.7384E-3,.10056E-3,0
LEMUR-2-LEIA-PHILIP,2025-052AN,2026-06-07T15:31:34.616352,14.97290101,.0002073,97.6846,50.7579,252.7944,107.3051,0,U,63246,999,6724,.21522E-3,.2437E-4,0
LEMUR-2-LIA-MARTIN,2025-052AQ,2026-06-07T15:43:04.965312,14.97724962,.0002277,97.6906,51.2261,174.2204,185.9045,0,U,63248,999,6725,.55209E-3,.6417E-4,0
LEMUR-2-DELOITTE-1,2025-052BB,2026-06-07T16:43:27.560928,14.97532629,.0002375,97.6919,51.5968,115.6925,244.4543,0,U,63259,999,6727,.40395E-3,.4656E-4,0
LEMUR-2-EMERSONROSE,2025-052BD,2026-06-08T00:21:49.079232,14.99020645,.0002491,97.6906,52.4515,71.6625,288.4869,0,U,63261,999,6736,.3393E-3,.4055E-4,0
LEMUR-2-MARACHE-FRAN,2025-052BE,2026-06-07T15:54:51.011424,15.00001972,.000623,97.6945,52.3995,53.6661,306.5137,0,U,63262,999,6733,.57581E-3,.7107E-4,0
LEMUR-2-THEFALCONER,2025-052BG,2026-06-07T10:54:38.641824,14.97324847,.0003592,97.6876,50.9885,61.6588,298.4996,0,U,63264,999,6723,.45412E-3,.5213E-4,0
LEMUR-2-UNTITLED-SC,2025-061A,2026-06-08T03:54:42.943392,15.13409013,.0017142,97.5632,134.5910,299.0915,60.8600,0,U,63351,999,6622,.19441E-3,.3416E-4,0
LEMUR-2-ESPERANZA,2025-061B,2026-06-07T22:36:59.001120,15.13503398,.0016791,97.5640,134.4636,299.3579,60.5974,0,U,63352,999,6619,.25394E-3,.4494E-4,0
LEMUR-2-KREMPEL-BRO2,2025-061C,2026-06-08T04:05:10.951296,15.13937260,.0017533,97.5686,135.2115,290.0164,69.9179,0,U,63353,999,6624,.19103E-3,.3406E-4,0
LEMUR-2-THERMORAPTOR,2025-061D,2026-06-07T11:48:19.237248,15.14011469,.0017308,97.5692,134.6110,291.4891,68.4494,0,U,63354,999,6614,.26729E-3,.4804E-4,0
LEMUR-2-NEUROSPICY,2025-061E,2026-06-07T22:14:44.318976,15.14130797,.0015077,97.5618,134.6770,294.2338,65.7317,0,U,63355,999,6621,.24564E-3,.442E-4,0
LEMUR-2-TILLINFINITY,2025-061F,2026-06-07T21:35:32.382240,15.14716168,.0016239,97.5604,134.9339,280.9054,79.0350,0,U,63356,999,6623,.2343E-3,.4285E-4,0
LEMUR-2-KREMPEL-BRO1,2025-061G,2026-06-07T17:45:20.593152,15.14521277,.0016922,97.5606,134.6938,282.8124,77.1217,0,U,63357,999,6620,.26969E-3,.4917E-4,0
LEMUR-2-LANGER2SPACE,2025-061H,2026-06-07T21:31:06.682368,15.14218500,.0014995,97.5610,134.6671,292.4182,67.5461,0,U,63358,999,6621,.24102E-3,.4346E-4,0
LEMUR-2-BALTO,2025-052BH,2026-06-07T23:32:55.762080,14.99987848,.0006619,97.6879,52.6992,80.9195,279.2777,0,U,63395,999,6738,.52457E-3,.6467E-4,0
LEMUR-2-KRISH,2025-135AK,2026-06-07T18:40:32.534976,14.96118306,.0001166,97.7724,273.7214,106.5836,253.5513,0,U,64561,999,5251,.49172E-3,.5476E-4,0
LEMUR-2-HUBBLE-4,2025-135AP,2026-06-08T00:32:40.893792,14.93172966,.0001647,97.7689,273.0408,358.7131,1.4084,0,U,64565,999,5250,.1531E-3,.1542E-4,0
LEMUR-2-SEJONG-2,2025-135BL,2026-06-08T03:29:37.237632,14.96631336,.0004577,97.7684,274.2298,19.4734,340.6661,0,U,64586,999,5259,.49299E-3,.5564E-4,0
LEMUR-2-HUBBLE-5,2025-135BT,2026-06-08T02:47:42.156096,14.94107909,.0005818,97.7709,273.7522,23.9193,336.2296,0,U,64840,999,5255,.17615E-3,.1826E-4,0
LEMUR-2-KARENDARRELL,2025-135BU,2026-06-07T18:42:11.468160,14.99976544,.0009092,97.7670,275.0051,238.7848,121.2485,0,U,64841,999,5260,.66622E-3,.8231E-4,0
LEMUR-2-LUCILLE-ROSE,2025-135BV,2026-06-07T06:52:25.603680,15.00027212,.001064,97.7771,274.5201,321.5198,38.5265,0,U,65403,999,4715,.61936E-3,.766E-4,0
LEMUR-2-AFFIE-WAUWIE,2025-248C,2026-06-07T07:23:30.971040,15.26866519,.0008835,45.3866,168.5000,20.2835,339.8404,0,U,66295,999,3308,.52119E-3,.13749E-3,0
LEMUR-2-DEANANDMAEVE,2025-276N,2026-06-08T03:53:32.014176,15.19620066,.0006516,97.4208,232.7884,43.4087,316.7660,0,U,66678,999,2904,.28646E-3,.6038E-4,0
LEMUR-2-STAS-GORBUK,2025-276W,2026-06-08T02:36:38.032992,15.19285810,.0006021,97.4244,232.7915,44.0308,316.1405,0,U,66686,999,2903,.29853E-3,.6234E-4,0
LEMUR-2-TEODOR,2025-276DG,2026-06-08T02:27:35.603424,15.20952982,.0001831,97.4148,233.0103,123.5791,236.5620,0,U,66768,999,2906,.29997E-3,.6575E-4,0
LEMUR-2-LAILA,2025-276DQ,2026-06-08T03:26:39.187968,15.21171904,.0001621,97.4172,233.1656,147.0958,213.0378,0,U,66776,999,2907,.25887E-3,.5701E-4,0
LEMUR-2-CELIJO-SB-PK,2025-276DW,2026-06-07T18:19:34.925088,14.99862044,.0008816,97.5277,229.8494,155.0572,205.1080,0,U,66781,999,2121,.55482E-3,.6826E-4,0
