LEMUR-2-ALISIA          
1 62706U 25009DB  26159.14623139  .00006992  00000+0  52894-3 0  9995
2 62706  97.6965 241.3777 0000923 189.4666 170.6542 15.02640637 98804
LEMUR-2-ROUNDTRIPPER    
1 62711U 25009DG  26159.04384568  .00010317  00000+0  75762-3 0  9995
2 62711  97.7242 241.7367 0004327 161.4715 198.6669 15.03639472 76256
LEMUR-2-MYNAMEISJEFF    
1 62712U 25009DH  26159.04232326  .00010056  00000+0  73840-3 0  9995
2 62712  97.7290 242.1104 0002581 189.1516 170.9662 15.03654749 76250
LEMUR-2-LEIA-PHILIP     
1 63246U 25052AN  26158.64692843  .00002437  00000+0  21522-3 0  9999
2 63246  97.6846  50.7579 0002073 252.7944 107.3051 14.97290101 67241
LEMUR-2-LIA-MARTIN      
1 63248U 25052AQ  26158.65491858  .00006417  00000+0  55209-3 0  9996
2 63248  97.6906  51.2261 0002277 174.2204 185.9045 14.97724962 67250
LEMUR-2-DELOITTE-1      
1 63259U 25052BB  26158.69684677  .00004656  00000+0  40395-3 0  9998
2 63259  97.6919  51.5968 0002375 115.6925 244.4543 14.97532629 67274
LEMUR-2-EMERSONROSE     
1 63261U 25052BD  26159.01515138  .00004055  00000+0  33930-3 0  9993
2 63261  97.6906  52.4515 0002491  71.6625 288.4869 14.99020645 67369
LEMUR-2-MARACHE-FRAN    
1 63262U 25052BE  26158.66309041  .00007107  00000+0  57581-3 0  9997
2 63262  97.6945  52.3995 0006230  53.6661 306.5137 15.00001972 67331
LEMUR-2-THEFALCONER     
1 63264U 25052BG  26158.45461391  .00005213  00000+0  45412-3 0  9999
2 63264  97.6876  50.9885 0003592  61.6588 298.4996 14.97324847 67238
LEMUR-2-UNTITLED-SC     
1 63351U 25061A   26159.16299703  .00003416  00000+0  19441-3 0  9997
2 63351  97.5632 134.5910 0017142 299.0915  60.8600 15.13409013 66228
LEMUR-2-ESPERANZA       
1 63352U 25061B   26158.94234955  .00004494  00000+0  25394-3 0  9992
2 63352  97.5640 134.4636 0016791 299.3579  60.5974 15.13503398 66198
LEMUR-2-KREMPEL-BRO2    
1 63353U 25061C   26159.17026564  .00003406  00000+0  19103-3 0  9997
2 63353  97.5686 135.2115 0017533 290.0164  69.9179 15.13937260 66248
LEMUR-2-THERMORAPTOR    
1 63354U 25061D   26158.49188932  .00004804  00000+0  26729-3 0  9995
2 63354  97.5692 134.6110 0017308 291.4891  68.4494 15.14011469 66144
LEMUR-2-NEUROSPICY      
1 63355U 25061E   26158.92690184  .00004420  00000+0  24564-3 0  9990
2 63355  97.5618 134.6770 0015077 294.2338  65.7317 15.14130797 66211
LEMUR-2-TILLINFINITY    
1 63356U 25061F   26158.89968035  .00004285  00000+0  23430-3 0  9990
2 63356  97.5604 134.9339 0016239 280.9054  79.0350 15.14716168 66238
LEMUR-2-KREMPEL-BRO1    
1 63357U 25061G   26158.73982168  .00004917  00000+0  26969-3 0  9999
2 63357  97.5606 134.6938 0016922 282.8124  77.1217 15.14521277 66204
LEMUR-2-LANGER2SPACE    
1 63358U 25061H   26158.89660512  .00004346  00000+0  24102-3 0  9996
2 63358  97.5610 134.6671 0014995 292.4182  67.5461 15.14218500 66210
LEMUR-2-BALTO           
1 63395U 25052BH  26158.98120095  .00006467  00000+0  52457-3 0  9994
2 63395  97.6879  52.6992 0006619  80.9195 279.2777 14.99987848 67383
LEMUR-2-KRISH           
1 64561U 25135AK  26158.77815434  .00005476  00000+0  49172-3 0  9996
2 64561  97.7724 273.7214 0001166 106.5836 253.5513 14.96118306 52515
LEMUR-2-HUBBLE-4        
1 64565U 25135AP  26159.02269553  .00001542  00000+0  15310-3 0  9991
2 64565  97.7689 273.0408 0001647 358.7131   1.4084 14.93172966 52501
LEMUR-2-SEJONG-2        
1 64586U 25135BL  26159.14556988  .00005564  00000+0  49299-3 0  9999
2 64586  97.7684 274.2298 0004577  19.4734 340.6661 14.96631336 52596
LEMUR-2-HUBBLE-5        
1 64840U 25135BT  26159.11646014  .00001826  00000+0  17615-3 0  9993
2 64840  97.7709 273.7522 0005818  23.9193 336.2296 14.94107909 52552
LEMUR-2-KARENDARRELL    
1 64841U 25135BU  26158.77929940  .00008231  00000+0  66622-3 0  9996
2 64841  97.7670 275.0051 0009092 238.7848 121.2485 14.99976544 52605
LEMUR-2-LUCILLE-ROSE    
1 65403U 25135BV  26158.28640745  .00007660  00000+0  61936-3 0  9998
2 65403  97.7771 274.5201 0010640 321.5198  38.5265 15.00027212 47155
LEMUR-2-AFFIE-WAUWIE    
1 66295U 25248C   26158.30799735  .00013749  00000+0  52119-3 0  9998
2 66295  45.3866 168.5000 0008835  20.2835 339.8404 15.26866519 33080
LEMUR-2-DEANANDMAEVE    
1 66678U 25276N   26159.16217609  .00006038  00000+0  28646-3 0  9995
2 66678  97.4208 232.7884 0006516  43.4087 316.7660 15.19620066 29043
LEMUR-2-STAS-GORBUK     
1 66686U 25276W   26159.10877353  .00006234  00000+0  29853-3 0  9995
2 66686  97.4244 232.7915 0006021  44.0308 316.1405 15.19285810 29035
LEMUR-2-TEODOR          
1 66768U 25276DG  26159.10249541  .00006575  00000+0  29997-3 0  9995
2 66768  97.4148 233.0103 0001831 123.5791 236.5620 15.20952982 29065
LEMUR-2-LAILA           
1 66776U 25276DQ  26159.14350912  .00005701  00000+0  25887-3 0  9997
2 66776  97.4172 233.1656 0001621 147.0958 213.0378 15.21171904 29077
LEMUR-2-CELIJO-SB-PK    
1 66781U 25276DW  26158.76359867  .00006826  00000+0  55482-3 0  9991
2 66781  97.5277 229.8494 0008816 155.0572 205.1080 14.99862044 21212
